0 AO-91
1 43017U 17073E   20008.55778919 +.00000287 +00000-0 +28201-4 0  9998
2 43017 097.7267 286.9749 0256638 214.2474 144.1959 14.78766020115386
0 AO-91
1 43017U 17073E   20009.23446049  .00000303  00000-0  29442-4 0  9997
2 43017  97.7268 287.6257 0256689 212.0357 146.5032 14.78766625115481
0 EAGLESAT 1
1 43018U 17073F   20009.00567505  .00000514  00000-0  45418-4 0  9999
2 43018  97.7259 287.6938 0254809 211.5329 147.0398 14.79348026115330
0 EAGLESAT 1
1 43018U 17073F   20008.59983170 +.00000533 +00000-0 +46900-4 0  9990
2 43018 097.7259 287.3032 0254781 212.8611 145.6540 14.79347591115271
0 ECAMSAT
1 43019U 98067NG  20009.03717581  .00006803  00000-0  77124-4 0  9992
2 43019  51.6411  24.1645 0004198 148.4190 211.7057 15.63706873207679
0 ECAMSAT
1 43019U 98067NG  20009.16499148  .00006864  00000-0  77752-4 0  9996
2 43019  51.6411  23.5181 0004201 148.8609 211.2635 15.63708671207698
0 ASTERIA
1 43020U 98067NH  20009.16939321  .00061909  00000-0  28336-3 0  9994
2 43020  51.6409 347.4666 0001631 119.3295 240.7871 15.83109812122094
0 DELLINGR (RBLE)
1 43021U 98067NJ  20009.15073245  .00010926  00000-0  10698-3 0  9993
2 43021  51.6375  16.5553 0001846 137.1956 222.9184 15.66704579121704
0 DELLINGR (RBLE)
1 43021U 98067NJ  20009.21451788  .00011101  00000-0  10860-3 0  9999
2 43021  51.6375  16.2313 0001846 137.4295 222.6844 15.66706170121714
0 DELLINGR (RBLE)
1 43021U 98067NJ  20009.53344401  .00011591  00000-0  11311-3 0  9992
2 43021  51.6374  14.6110 0001843 138.1733 221.9404 15.66714426121764
0 JILIN-01-04
1 43022U 17074A   20009.45172546  .00000333  00000-0  24474-4 0  9999
2 43022  97.5309 106.0567 0009748 103.3267 321.7987 15.09837364117564
0 JILIN-01-04
1 43022U 17074A   20009.11824449  .00000399  00000-0  28572-4 0  9993
2 43022  97.5309 105.7289 0009732 104.5596 309.1052 15.09837576117515
0 JILIN-01-04
1 43022U 17074A   20008.93006542 +.00000436 +00000-0 +30860-4 0  9993
2 43022 097.5310 105.5440 0009732 105.0121 006.4689 15.09837713117486
0 JILIN-01-05
1 43023U 17074B   20009.94768008  .00011539  00000-0  71602-3 0  9992
2 43023  97.5337 106.6577 0010506 104.5646  17.5613 15.09822919117635
0 JILIN-01-06
1 43024U 17074C   20009.56660972 -.00000186  00000-0 -76060-5 0  9995
2 43024  97.5300 106.2289 0012721 114.1470 341.3424 15.09832826117574
0 JILIN-01-06
1 43024U 17074C   20008.90637612 -.00000220 +00000-0 -97017-5 0  9991
2 43024 097.5298 105.5799 0012665 115.9749 353.1435 15.09832636117474
0 JILIN-01-06
1 43024U 17074C   20009.42936553 -.00000195  00000-0 -81610-5 0  9998
2 43024  97.5300 106.0940 0012732 114.5849 315.3978 15.09832765117557
0 JILIN-01-06
1 43024U 17074C   20009.22949951 -.00000181  00000-0 -73012-5 0  9994
2 43024  97.5299 105.8976 0012722 115.2946 309.0227 15.09832895117523
0 YAOGAN-30 D
1 43028U 17075A   20009.30117266  .00000102  00000-0  13185-4 0  9999
2 43028  34.9991   0.8305 0001252 183.6209 176.4485 14.89704291115714
0 YAOGAN-30 D
1 43028U 17075A   20009.10011239  .00000105  00000-0  13521-4 0  9997
2 43028  34.9992   2.0314 0001247 181.7915 178.2794 14.89704276115688
0 YAOGAN-30 D
1 43028U 17075A   20009.43521299  .00000117  00000-0  14735-4 0  9996
2 43028  34.9991   0.0304 0001386 188.2608 171.8098 14.89704434115737
0 YAOGAN-30 E
1 43029U 17075B   20009.14560929  .00000135  00000-0  16575-4 0  9992
2 43029  34.9987   1.4159 0004567  88.0914 272.0324 14.89706468115686
0 YAOGAN-30 E
1 43029U 17075B   20009.27964924  .00000128  00000-0  15874-4 0  9992
2 43029  34.9985   0.6154 0004512  89.7945 270.3281 14.89706420115706
0 YAOGAN-30 F
1 43030U 17075C   20009.12293165  .00000114  00000-0  14428-4 0  9999
2 43030  34.9996   1.3016 0004391 289.2676  70.7562 14.89707349115668
0 YAOGAN-30 F
1 43030U 17075C   20009.32399170  .00000116  00000-0  14622-4 0  9992
2 43030  34.9996   0.1007 0004404 290.7555  69.2683 14.89707424115697
0 YAOGAN-30 F
1 43030U 17075C   20009.39101167  .00000120  00000-0  15084-4 0  9994
2 43030  34.9996 359.7005 0004401 291.1624  68.8613 14.89707490115700
0 CZ-2C R/B
1 43031U 17075D   20008.52500797 +.00000532 +00000-0 +27918-4 0  9997
2 43031 035.2107 203.4666 0100537 057.3336 303.7031 15.13744048117431
0 COSMOS 2524
1 43032U 17076A   20009.29215275 -.00003599  00000-0 -25305-2 0  9992
2 43032  67.1449 151.6688 0003704 252.4162 107.6514 13.96893664107250
0 COSMOS 2524
1 43032U 17076A   20009.14895585 -.00003589  00000-0 -25228-2 0  9997
2 43032  67.1448 152.0168 0003729 252.7740 107.2931 13.96894748107230
0 LKW-1
1 43034U 17077A   20009.32287451  .00000668  00000-0  31038-4 0  9998
2 43034  97.3903  88.6305 0011218  95.0501 333.0572 15.23367958116796
0 LKW-1
1 43034U 17077A   20009.18859529  .00000654  00000-0  30446-4 0  9990
2 43034  97.3904  88.4984 0011191  95.4079 316.7674 15.23367711116778
0 LKW-1
1 43034U 17077A   20009.85570811  .00000617  00000-0  28894-4 0  9991
2 43034  97.3904  89.1551 0011233  93.4328  14.9258 15.23368319116879
0 CZ-2D DEB
1 43036U 17077C   20009.55602581  .00001779  00000-0  77155-4 0  9994
2 43036  97.5293 100.5011 0010794 312.1363  47.8955 15.23662264116655
0 CZ-2D DEB
1 43036U 17077C   20008.70227317 +.00001622 +00000-0 +70625-4 0  9992
2 43036 097.5293 099.6444 0010837 315.4104 044.6260 15.23658167116550
0 CZ-2D DEB
1 43037U 17077D   20008.85033614 +.00005992 +00000-0 +13289-3 0  9990
2 43037 097.5301 117.6814 0046670 093.1500 267.5089 15.42974099117762
0 CZ-2D DEB
1 43037U 17077D   20009.23944798  .00006146  00000-0  13622-3 0  9990
2 43037  97.5302 118.0837 0046660  91.7807 268.8785 15.42979020117829
0 CZ-2D DEB
1 43038U 17077E   20008.86848912 +.00003126 +00000-0 +95324-4 0  9995
2 43038 097.2659 085.2785 0037718 081.2295 279.3217 15.34000433117223
0 ALCOMSAT 1
1 43039U 17078A   20008.82547161 -.00000170 +00000-0 +00000-0 0  9995
2 43039 000.0423 283.1730 0002193 347.5150 109.5347 01.00271907007715
0 LEMUR 2 ROCKETJONAH
1 43041U 17071E   20008.87077933 +.00005963 +00000-0 +13017-3 0  9990
2 43041 051.6373 124.1733 0001169 104.4506 255.6611 15.45671109120005
0 LEMUR 2 ROCKETJONAH
1 43041U 17071E   20009.58197402  .00007408  00000-0  15952-3 0  9999
2 43041  51.6376 120.6729 0001153 104.0696 256.0419 15.45682473120112
0 AEROCUBE 7B
1 43042U 17071F   20009.59157678  .00004232  00000-0  10562-3 0  9996
2 43042  51.6373 130.3145 0004636 175.3143 184.7886 15.42440240117692
0 AEROCUBE 7B
1 43042U 17071F   20008.81409809 +.00003802 +00000-0 +95870-4 0  9994
2 43042 051.6370 134.1228 0004685 172.4082 187.6975 15.42432217117570
0 AEROCUBE 7C
1 43043U 17071G   20008.81499226 +.00003824 +00000-0 +96438-4 0  9992
2 43043 051.6371 134.1435 0004894 176.6869 183.4150 15.42410574117541
0 AEROCUBE 7C
1 43043U 17071G   20009.59248182  .00004265  00000-0  10643-3 0  9994
2 43043  51.6373 130.3353 0004848 179.6769 180.4220 15.42418623117662
0 CHEFSAT
1 43044U 17071H   20008.91880574 +.00007461 +00000-0 +15854-3 0  9997
2 43044 051.6384 123.7857 0004632 179.8725 180.2264 15.46065056117696
0 LEMUR 2 YONGLIN
1 43045U 17071J   20008.87540360 +.00005780 +00000-0 +12301-3 0  9995
2 43045 051.6381 121.2760 0003918 170.4765 189.6298 15.46496687117774
0 LEMUR 2 YONGLIN
1 43045U 17071J   20008.94002328  .00005824  00000-0  12389-3 0  9995
2 43045  51.6381 120.9575 0003912 170.7335 189.3725 15.46497493117772
0 LEMUR 2 KEVIN
1 43046U 17071K   20008.91264061 +.00005481 +00000-0 +12290-3 0  9997
2 43046 051.6384 125.2660 0003934 165.9073 194.2024 15.45050043117725
0 LEMUR 2 BRIANDAVIE
1 43047U 17071L   20008.91258575 +.00006042 +00000-0 +13358-3 0  9991
2 43047 051.6369 125.9142 0002595 201.3272 158.7607 15.45271282117709
0 LEMUR 2 BRIANDAVIE
1 43047U 17071L   20008.91258575  .00006042  00000-0  13358-3 0  9991
2 43047  51.6369 125.9142 0002595 201.3272 158.7607 15.45271282117709
0 LEMUR 2 ROMACOSTE
1 43048U 17071M   20008.87791108 +.00005362 +00000-0 +11729-3 0  9995
2 43048 051.6379 124.2607 0002512 201.6935 158.3946 15.45843477117722
0 ASGARDIA 1
1 43049U 17071N   20008.49209592 +.00003496 +00000-0 +88661-4 0  9991
2 43049 051.6382 135.0403 0002377 184.7358 175.3605 15.42512655117505
0 ASGARDIA 1
1 43049U 17071N   20008.94560250  .00003689  00000-0  93040-4 0  9993
2 43049  51.6383 132.8189 0002348 186.4273 173.6683 15.42516586117565
0 ISARA
1 43050U 17071P   20008.81333462 +.00005600 +00000-0 +12404-3 0  9993
2 43050 051.6365 126.0016 0002262 185.3765 174.7198 15.45370684117653
0 ISARA
1 43050U 17071P   20009.58933323  .00007469  00000-0  16237-3 0  9993
2 43050  51.6371 122.1839 0002210 188.6215 171.4734 15.45384087117763
0 LEMUR 2 MCCULLAGH
1 43051U 17071Q   20008.93075338 +.00005944 +00000-0 +12945-3 0  9993
2 43051 051.6390 123.8715 0000699 039.7263 320.3775 15.45746205117689
0 LEMUR 2 MCCULLAGH
1 43051U 17071Q   20008.93075338  .00005944  00000-0  12945-3 0  9993
2 43051  51.6390 123.8715 0000699  39.7263 320.3775 15.45746205117689
0 FAUNA
1 43052U 17071R   20008.71523232 +.00003064 +00000-0 +77963-4 0  9994
2 43052 051.6378 132.7996 0002326 181.4677 178.6302 15.42877982117548
0 FAUNA
1 43052U 17071R   20009.49248691  .00003805  00000-0  94532-4 0  9997
2 43052  51.6382 128.9897 0002322 184.3447 175.7519 15.42885551117665
0 LEMUR 2 DUNLOP
1 43053U 17071S   20008.82589674 +.00004758 +00000-0 +10851-3 0  9992
2 43053 051.6366 127.5605 0000675 032.7666 327.3363 15.44866779117630
0 LEMUR 2 LIU-POU-CHUN
1 43054U 17071T   20008.91449367 +.00005923 +00000-0 +13051-3 0  9997
2 43054 051.6373 124.4734 0001094 118.3002 241.8096 15.45407264117688
0 GALILEO 22 (2C8)
1 43058U 17079D   20008.54667616 -.00000012 +00000-0 +00000-0 0  9999
2 43058 056.3945 286.2101 0004505 281.5634 078.4307 01.70473571012925
